[{"OBJECT_NAME":"ITUPSAT1","OBJECT_ID":"2009-051E","EPOCH":"2026-03-06T06:09:38.639808","MEAN_MOTION":14.60259585,"ECCENTRICITY":0.00070299,"INCLINATION":98.4119,"RA_OF_ASC_NODE":330.4839,"ARG_OF_PERICENTER":189.0317,"MEAN_ANOMALY":171.0757,"EPHEMERIS_TYPE":0,"CLASSIFICATION_TYPE":"U","NORAD_CAT_ID":35935,"ELEMENT_SET_NO":999,"REV_AT_EPOCH":87371,"BSTAR":0.00029045006,"MEAN_MOTION_DOT":1.353e-5,"MEAN_MOTION_DDOT":0},{"OBJECT_NAME":"DMSP 5D-3 F18 (USA 210)","OBJECT_ID":"2009-057A","EPOCH":"2026-03-06T05:55:52.544352","MEAN_MOTION":14.14833413,"ECCENTRICITY":0.00109339,"INCLINATION":98.896,"RA_OF_ASC_NODE":46.2882,"ARG_OF_PERICENTER":178.0597,"MEAN_ANOMALY":182.062,"EPHEMERIS_TYPE":0,"CLASSIFICATION_TYPE":"U","NORAD_CAT_ID":35951,"ELEMENT_SET_NO":999,"REV_AT_EPOCH":84503,"BSTAR":0.00020794929,"MEAN_MOTION_DOT":3.57e-6,"MEAN_MOTION_DDOT":0},{"OBJECT_NAME":"PROBA-2","OBJECT_ID":"2009-059B","EPOCH":"2026-03-06T01:47:47.788224","MEAN_MOTION":14.54788001,"ECCENTRICITY":0.00121855,"INCLINATION":98.2427,"RA_OF_ASC_NODE":249.8585,"ARG_OF_PERICENTER":236.2647,"MEAN_ANOMALY":123.7389,"EPHEMERIS_TYPE":0,"CLASSIFICATION_TYPE":"U","NORAD_CAT_ID":36037,"ELEMENT_SET_NO":999,"REV_AT_EPOCH":86653,"BSTAR":9.6873813e-5,"MEAN_MOTION_DOT":3.7e-6,"MEAN_MOTION_DDOT":0},{"OBJECT_NAME":"YAOGAN-7","OBJECT_ID":"2009-069A","EPOCH":"2026-03-06T05:58:56.842464","MEAN_MOTION":14.77886086,"ECCENTRICITY":0.00250425,"INCLINATION":98.0217,"RA_OF_ASC_NODE":311.6777,"ARG_OF_PERICENTER":14.3764,"MEAN_ANOMALY":345.8153,"EPHEMERIS_TYPE":0,"CLASSIFICATION_TYPE":"U","NORAD_CAT_ID":36110,"ELEMENT_SET_NO":999,"REV_AT_EPOCH":87442,"BSTAR":0.00015460812,"MEAN_MOTION_DOT":1.065e-5,"MEAN_MOTION_DDOT":0},{"OBJECT_NAME":"XIWANG-1 (HOPE-1)","OBJECT_ID":"2009-072B","EPOCH":"2026-03-06T06:21:37.639008","MEAN_MOTION":13.1643481,"ECCENTRICITY":0.00080389,"INCLINATION":100.3914,"RA_OF_ASC_NODE":20.7967,"ARG_OF_PERICENTER":106.8424,"MEAN_ANOMALY":253.3571,"EPHEMERIS_TYPE":0,"CLASSIFICATION_TYPE":"U","NORAD_CAT_ID":36122,"ELEMENT_SET_NO":999,"REV_AT_EPOCH":77946,"BSTAR":-0.00074620564,"MEAN_MOTION_DOT":-3.29e-6,"MEAN_MOTION_DDOT":0},{"OBJECT_NAME":"RADUGA-1M 2","OBJECT_ID":"2010-002A","EPOCH":"2026-03-06T04:02:02.252832","MEAN_MOTION":0.98964222,"ECCENTRICITY":0.0008465,"INCLINATION":3.3523,"RA_OF_ASC_NODE":80.1524,"ARG_OF_PERICENTER":250.3532,"MEAN_ANOMALY":326.5162,"EPHEMERIS_TYPE":0,"CLASSIFICATION_TYPE":"U","NORAD_CAT_ID":36358,"ELEMENT_SET_NO":999,"REV_AT_EPOCH":4900,"BSTAR":0,"MEAN_MOTION_DOT":6.0e-7,"MEAN_MOTION_DDOT":0},{"OBJECT_NAME":"COSMOS 2463","OBJECT_ID":"2010-017A","EPOCH":"2026-03-06T06:37:38.623872","MEAN_MOTION":13.71657616,"ECCENTRICITY":0.00373134,"INCLINATION":82.9636,"RA_OF_ASC_NODE":325.3388,"ARG_OF_PERICENTER":56.7201,"MEAN_ANOMALY":62.6131,"EPHEMERIS_TYPE":0,"CLASSIFICATION_TYPE":"U","NORAD_CAT_ID":36519,"ELEMENT_SET_NO":999,"REV_AT_EPOCH":79382,"BSTAR":7.2199205e-5,"MEAN_MOTION_DOT":8.1e-7,"MEAN_MOTION_DDOT":0},{"OBJECT_NAME":"CARTOSAT-2B","OBJECT_ID":"2010-035A","EPOCH":"2026-03-06T06:39:57.790944","MEAN_MOTION":14.78793512,"ECCENTRICITY":0.00122294,"INCLINATION":97.8656,"RA_OF_ASC_NODE":116.6303,"ARG_OF_PERICENTER":159.9453,"MEAN_ANOMALY":200.2242,"EPHEMERIS_TYPE":0,"CLASSIFICATION_TYPE":"U","NORAD_CAT_ID":36795,"ELEMENT_SET_NO":999,"REV_AT_EPOCH":84464,"BSTAR":0.00018468248,"MEAN_MOTION_DOT":1.308e-5,"MEAN_MOTION_DDOT":0},{"OBJECT_NAME":"AISSAT 1","OBJECT_ID":"2010-035C","EPOCH":"2026-03-06T06:48:26.385408","MEAN_MOTION":14.96868772,"ECCENTRICITY":0.00100885,"INCLINATION":98.103,"RA_OF_ASC_NODE":320.8784,"ARG_OF_PERICENTER":42.8927,"MEAN_ANOMALY":317.3079,"EPHEMERIS_TYPE":0,"CLASSIFICATION_TYPE":"U","NORAD_CAT_ID":36797,"ELEMENT_SET_NO":999,"REV_AT_EPOCH":84882,"BSTAR":0.00026784374,"MEAN_MOTION_DOT":3.011e-5,"MEAN_MOTION_DDOT":0},{"OBJECT_NAME":"TISAT 1","OBJECT_ID":"2010-035E","EPOCH":"2026-03-06T06:50:39.643584","MEAN_MOTION":15.27425128,"ECCENTRICITY":7.852e-5,"INCLINATION":98.0648,"RA_OF_ASC_NODE":3.099,"ARG_OF_PERICENTER":167.2342,"MEAN_ANOMALY":192.8915,"EPHEMERIS_TYPE":0,"CLASSIFICATION_TYPE":"U","NORAD_CAT_ID":36799,"ELEMENT_SET_NO":999,"REV_AT_EPOCH":85197,"BSTAR":0.00092801254,"MEAN_MOTION_DOT":0.00024887,"MEAN_MOTION_DDOT":0},{"OBJECT_NAME":"YAOGAN-10","OBJECT_ID":"2010-038A","EPOCH":"2026-03-06T08:05:30.056352","MEAN_MOTION":14.84997039,"ECCENTRICITY":0.00015755,"INCLINATION":97.9078,"RA_OF_ASC_NODE":89.5346,"ARG_OF_PERICENTER":89.8854,"MEAN_ANOMALY":326.8532,"EPHEMERIS_TYPE":0,"CLASSIFICATION_TYPE":"U","NORAD_CAT_ID":36834,"ELEMENT_SET_NO":999,"REV_AT_EPOCH":84194,"BSTAR":0.00026835936,"MEAN_MOTION_DOT":2.235e-5,"MEAN_MOTION_DDOT":0},{"OBJECT_NAME":"SHIJIAN-6 04B (SJ-6 04B)","OBJECT_ID":"2010-051B","EPOCH":"2026-03-06T07:20:06.050112","MEAN_MOTION":14.99112605,"ECCENTRICITY":0.00087628,"INCLINATION":97.8748,"RA_OF_ASC_NODE":69.6586,"ARG_OF_PERICENTER":308.4611,"MEAN_ANOMALY":51.5825,"EPHEMERIS_TYPE":0,"CLASSIFICATION_TYPE":"U","NORAD_CAT_ID":37180,"ELEMENT_SET_NO":999,"REV_AT_EPOCH":84026,"BSTAR":0.00017185324,"MEAN_MOTION_DOT":2.028e-5,"MEAN_MOTION_DDOT":0},{"OBJECT_NAME":"FENGYUN 3B","OBJECT_ID":"2010-059A","EPOCH":"2026-03-06T06:43:04.463328","MEAN_MOTION":14.14817254,"ECCENTRICITY":0.00230299,"INCLINATION":98.9769,"RA_OF_ASC_NODE":110.7945,"ARG_OF_PERICENTER":117.4613,"MEAN_ANOMALY":15.2891,"EPHEMERIS_TYPE":0,"CLASSIFICATION_TYPE":"U","NORAD_CAT_ID":37214,"ELEMENT_SET_NO":999,"REV_AT_EPOCH":79287,"BSTAR":0.00022342676,"MEAN_MOTION_DOT":3.87e-6,"MEAN_MOTION_DDOT":0},{"OBJECT_NAME":"COSMO-SKYMED 4","OBJECT_ID":"2010-060A","EPOCH":"2026-03-06T06:54:13.663296","MEAN_MOTION":14.82158525,"ECCENTRICITY":0.00014373,"INCLINATION":97.8855,"RA_OF_ASC_NODE":250.3731,"ARG_OF_PERICENTER":83.5324,"MEAN_ANOMALY":276.6053,"EPHEMERIS_TYPE":0,"CLASSIFICATION_TYPE":"U","NORAD_CAT_ID":37216,"ELEMENT_SET_NO":999,"REV_AT_EPOCH":82932,"BSTAR":0.00012525794,"MEAN_MOTION_DOT":9.45e-6,"MEAN_MOTION_DDOT":0},{"OBJECT_NAME":"O/OREOS (USA 219)","OBJECT_ID":"2010-062C","EPOCH":"2026-03-06T01:07:57.370656","MEAN_MOTION":14.93255856,"ECCENTRICITY":0.00169019,"INCLINATION":71.9718,"RA_OF_ASC_NODE":313.8877,"ARG_OF_PERICENTER":262.8141,"MEAN_ANOMALY":97.1108,"EPHEMERIS_TYPE":0,"CLASSIFICATION_TYPE":"U","NORAD_CAT_ID":37224,"ELEMENT_SET_NO":999,"REV_AT_EPOCH":10124,"BSTAR":0.00027461766,"MEAN_MOTION_DOT":2.82e-5,"MEAN_MOTION_DDOT":0},{"OBJECT_NAME":"ELEKTRO-L 1 (GOMS 2)","OBJECT_ID":"2011-001A","EPOCH":"2026-03-05T22:13:08.217120","MEAN_MOTION":1.00174094,"ECCENTRICITY":0.00034283,"INCLINATION":9.4526,"RA_OF_ASC_NODE":55.5412,"ARG_OF_PERICENTER":10.5465,"MEAN_ANOMALY":0.5067,"EPHEMERIS_TYPE":0,"CLASSIFICATION_TYPE":"U","NORAD_CAT_ID":37344,"ELEMENT_SET_NO":999,"REV_AT_EPOCH":5545,"BSTAR":0,"MEAN_MOTION_DOT":-2.66e-6,"MEAN_MOTION_DDOT":0}]
