ITUPSAT1                
1 35935U 09051E   26065.25669722  .00001353  00000+0  29045-3 0  9992
2 35935  98.4119 330.4839 0007029 189.0317 171.0757 14.60259585873715
DMSP 5D-3 F18 (USA 210) 
1 35951U 09057A   26065.24713593  .00000357  00000+0  20795-3 0  9997
2 35951  98.8960  46.2882 0010933 178.0597 182.0620 14.14833413845039
PROBA-2                 
1 36037U 09059B   26065.07485866  .00000370  00000+0  96874-4 0  9992
2 36037  98.2427 249.8585 0012185 236.2647 123.7389 14.54788001866530
YAOGAN-7                
1 36110U 09069A   26065.24926901  .00001065  00000+0  15461-3 0  9998
2 36110  98.0217 311.6777 0025042  14.3764 345.8153 14.77886086874429
XIWANG-1 (HOPE-1)       
1 36122U 09072B   26065.26501897 -.00000329  00000+0 -74621-3 0  9997
2 36122 100.3914  20.7967 0008038 106.8424 253.3571 13.16434810779469
RADUGA-1M 2             
1 36358U 10002A   26065.16808163  .00000060  00000+0  00000+0 0  9994
2 36358   3.3523  80.1524 0008465 250.3532 326.5162  0.98964222 49006
COSMOS 2463             
1 36519U 10017A   26065.27614148  .00000081  00000+0  72199-4 0  9995
2 36519  82.9636 325.3388 0037313  56.7201  62.6131 13.71657616793821
CARTOSAT-2B             
1 36795U 10035A   26065.27775221  .00001308  00000+0  18468-3 0  9992
2 36795  97.8656 116.6303 0012229 159.9453 200.2242 14.78793512844640
AISSAT 1                
1 36797U 10035C   26065.28363872  .00003011  00000+0  26784-3 0  9993
2 36797  98.1030 320.8784 0010088  42.8927 317.3079 14.96868772848824
TISAT 1                 
1 36799U 10035E   26065.28518106  .00024887  00000+0  92801-3 0  9994
2 36799  98.0648   3.0990 0000785 167.2342 192.8915 15.27425128851979
YAOGAN-10               
1 36834U 10038A   26065.33715343  .00002235  00000+0  26836-3 0  9993
2 36834  97.9078  89.5346 0001575  89.8854 326.8532 14.84997039841940
SHIJIAN-6 04B (SJ-6 04B)
1 37180U 10051B   26065.30562558  .00002028  00000+0  17185-3 0  9995
2 37180  97.8748  69.6586 0008762 308.4611  51.5825 14.99112605840264
FENGYUN 3B              
1 37214U 10059A   26065.27991277  .00000387  00000+0  22343-3 0  9999
2 37214  98.9769 110.7945 0023029 117.4613  15.2891 14.14817254792879
COSMO-SKYMED 4          
1 37216U 10060A   26065.28765814  .00000945  00000+0  12526-3 0  9992
2 37216  97.8855 250.3731 0001437  83.5324 276.6053 14.82158525829328
O/OREOS (USA 219)       
1 37224U 10062C   26065.04719179  .00002820  00000+0  27462-3 0  9999
2 37224  71.9718 313.8877 0016901 262.8141  97.1108 14.93255856101243
ELEKTRO-L 1 (GOMS 2)    
1 37344U 11001A   26064.92578955 -.00000266  00000+0  00000+0 0  9995
2 37344   9.4526  55.5412 0003428  10.5465   0.5067  1.00174094 55452
